start=new Date('2022-03-13T00:00:00.000Z').valueOf();
sats=[{"GP_ID":"198603508","MEAN_ELEMENT_THEORY":"SGP4","EPHEMERIS_TYPE":"0","MEAN_ANOMALY":"297.5840","MEAN_MOTION":"15.06417398","RA_OF_ASC_NODE":"11.2739","RCS_SIZE":"LARGE","LAUNCH_DATE":"2020-08-18","PERIAPSIS":"546.082","TLE_LINE2":"2 46154  53.0560  11.2739 0001557  62.5308 297.5840 15.06417398 86470","CLASSIFICATION_TYPE":"U","OBJECT_TYPE":"PAYLOAD","INCLINATION":"53.0560","COUNTRY_CODE":"US","TLE_LINE1":"1 46154U 20057AP  22071.81641434  .00004589  00000-0  32660-3 0  9993","TIME_SYSTEM":"UTC","DECAY_DATE":null,"BSTAR":"0.00032660000000","SITE":"AFETR","REV_AT_EPOCH":"8647","MEAN_MOTION_DDOT":"0.0000000000000","APOAPSIS":"548.239","NORAD_CAT_ID":"46154","EPOCH":"2022-03-12T19:35:38.198976","CENTER_NAME":"EARTH","ECCENTRICITY":"0.00015570","ARG_OF_PERICENTER":"62.5308","OBJECT_ID":"2020-057AP","PERIOD":"95.591","ELEMENT_SET_NO":"999","REF_FRAME":"TEME","SEMIMAJOR_AXIS":"6925.295","FILE":"3356931","OBJECT_NAME":"STARLINK-1642","MEAN_MOTION_DOT":"0.00004589"},{"OBJECT_ID":"2020-057AQ","ARG_OF_PERICENTER":"63.4851","PERIOD":"95.592","ELEMENT_SET_NO":"999","REF_FRAME":"TEME","SEMIMAJOR_AXIS":"6925.321","FILE":"3356931","OBJECT_NAME":"STARLINK-1667","MEAN_MOTION_DOT":"-0.00003101","BSTAR":"-0.00018930000000","SITE":"AFETR","REV_AT_EPOCH":"8814","MEAN_MOTION_DDOT":"0.0000000000000","APOAPSIS":"548.040","NORAD_CAT_ID":"46155","EPOCH":"2022-03-12T21:46:59.930976","CENTER_NAME":"EARTH","ECCENTRICITY":"0.00012330","RA_OF_ASC_NODE":"340.8445","RCS_SIZE":"LARGE","LAUNCH_DATE":"2020-08-18","PERIAPSIS":"546.332","TLE_LINE2":"2 46155  53.0549 340.8445 0001233  63.4851 296.6264 15.06408873 88141","CLASSIFICATION_TYPE":"U","OBJECT_TYPE":"PAYLOAD","COUNTRY_CODE":"US","INCLINATION":"53.0549","TLE_LINE1":"1 46155U 20057AQ  22071.90763809 -.00003101  00000-0 -18930-3 0  9990","TIME_SYSTEM":"UTC","DECAY_DATE":null,"GP_ID":"198603258","MEAN_ELEMENT_THEORY":"SGP4","EPHEMERIS_TYPE":"0","MEAN_ANOMALY":"296.6264","MEAN_MOTION":"15.06408873"},{"EPHEMERIS_TYPE":"0","MEAN_ELEMENT_THEORY":"SGP4","GP_ID":"198602006","MEAN_ANOMALY":"302.5782","MEAN_MOTION":"15.06400187","TLE_LINE2":"2 46156  53.0537   1.1838 0001700  57.5372 302.5782 15.06400187 87863","CLASSIFICATION_TYPE":"U","PERIAPSIS":"546.036","LAUNCH_DATE":"2020-08-18","RA_OF_ASC_NODE":"1.1838","RCS_SIZE":"LARGE","DECAY_DATE":null,"TIME_SYSTEM":"UTC","TLE_LINE1":"1 46156U 20057AR  22071.83208564 -.00000169  00000-0  75742-5 0  9991","OBJECT_TYPE":"PAYLOAD","INCLINATION":"53.0537","COUNTRY_CODE":"US","APOAPSIS":"548.390","MEAN_MOTION_DDOT":"0.0000000000000","SITE":"AFETR","REV_AT_EPOCH":"8786","BSTAR":"0.00000757420000","ECCENTRICITY":"0.00017000","CENTER_NAME":"EARTH","NORAD_CAT_ID":"46156","EPOCH":"2022-03-12T19:58:12.199296","REF_FRAME":"TEME","ELEMENT_SET_NO":"999","PERIOD":"95.592","ARG_OF_PERICENTER":"57.5372","OBJECT_ID":"2020-057AR","MEAN_MOTION_DOT":"-0.00000169","OBJECT_NAME":"STARLINK-1545","SEMIMAJOR_AXIS":"6925.348","FILE":"3356931"},{"NORAD_CAT_ID":"46157","EPOCH":"2022-03-12T21:15:10.043424","CENTER_NAME":"EARTH","ECCENTRICITY":"0.00020960","SITE":"AFETR","REV_AT_EPOCH":"8690","BSTAR":"-0.00002078200000","APOAPSIS":"548.633","MEAN_MOTION_DDOT":"0.0000000000000","OBJECT_NAME":"STARLINK-1587","SEMIMAJOR_AXIS":"6925.316","FILE":"3356931","MEAN_MOTION_DOT":"-0.00000591","OBJECT_ID":"2020-057AS","ARG_OF_PERICENTER":"52.1203","REF_FRAME":"TEME","ELEMENT_SET_NO":"999","PERIOD":"95.591","MEAN_ANOMALY":"307.9975","MEAN_MOTION":"15.06410486","EPHEMERIS_TYPE":"0","GP_ID":"198602256","MEAN_ELEMENT_THEORY":"SGP4","TLE_LINE1":"1 46157U 20057AS  22071.88553291 -.00000591  00000-0 -20782-4 0  9990","OBJECT_TYPE":"PAYLOAD","INCLINATION":"53.0567","COUNTRY_CODE":"US","DECAY_DATE":null,"TIME_SYSTEM":"UTC","LAUNCH_DATE":"2020-08-18","RA_OF_ASC_NODE":"340.9541","RCS_SIZE":"LARGE","TLE_LINE2":"2 46157  53.0567 340.9541 0002096  52.1203 307.9975 15.06410486 86905","CLASSIFICATION_TYPE":"U","PERIAPSIS":"545.730"},{"MEAN_ELEMENT_THEORY":"SGP4","GP_ID":"198603008","EPHEMERIS_TYPE":"0","MEAN_ANOMALY":"286.2670","MEAN_MOTION":"15.06410530","RA_OF_ASC_NODE":"340.9747","RCS_SIZE":"LARGE","LAUNCH_DATE":"2020-08-18","PERIAPSIS":"546.196","TLE_LINE2":"2 46158  53.0556 340.9747 0001423  73.8475 286.2670 15.06410530 88167","CLASSIFICATION_TYPE":"U","OBJECT_TYPE":"PAYLOAD","COUNTRY_CODE":"US","INCLINATION":"53.0556","TLE_LINE1":"1 46158U 20057AT  22071.88184305  .00000181  00000-0  31070-4 0  9992","TIME_SYSTEM":"UTC","DECAY_DATE":null,"BSTAR":"0.00003107000000","SITE":"AFETR","REV_AT_EPOCH":"8816","MEAN_MOTION_DDOT":"0.0000000000000","APOAPSIS":"548.167","NORAD_CAT_ID":"46158","EPOCH":"2022-03-12T21:09:51.239520","CENTER_NAME":"EARTH","ECCENTRICITY":"0.00014230","ARG_OF_PERICENTER":"73.8475","OBJECT_ID":"2020-057AT","PERIOD":"95.591","ELEMENT_SET_NO":"999","REF_FRAME":"TEME","FILE":"3356931","SEMIMAJOR_AXIS":"6925.316","OBJECT_NAME":"STARLINK-1589","MEAN_MOTION_DOT":"0.00000181"},{"TLE_LINE2":"2 46159  53.0550  22.2827 0001969  66.9385 293.1811 15.06412976 87551","CLASSIFICATION_TYPE":"U","PERIAPSIS":"545.810","LAUNCH_DATE":"2020-08-18","RA_OF_ASC_NODE":"22.2827","RCS_SIZE":"LARGE","DECAY_DATE":null,"TIME_SYSTEM":"UTC","TLE_LINE1":"1 46159U 20057AU  22071.59064922  .00001672  00000-0  13108-3 0  9990","OBJECT_TYPE":"PAYLOAD","COUNTRY_CODE":"US","INCLINATION":"53.0550","EPHEMERIS_TYPE":"0","GP_ID":"198603759","MEAN_ELEMENT_THEORY":"SGP4","MEAN_ANOMALY":"293.1811","MEAN_MOTION":"15.06412976","ELEMENT_SET_NO":"999","REF_FRAME":"TEME","PERIOD":"95.591","ARG_OF_PERICENTER":"66.9385","OBJECT_ID":"2020-057AU","MEAN_MOTION_DOT":"0.00001672","OBJECT_NAME":"STARLINK-1595","SEMIMAJOR_AXIS":"6925.309","FILE":"3356931","APOAPSIS":"548.537","MEAN_MOTION_DDOT":"0.0000000000000","SITE":"AFETR","REV_AT_EPOCH":"8755","BSTAR":"0.00013108000000","ECCENTRICITY":"0.00019690","CENTER_NAME":"EARTH","NORAD_CAT_ID":"46159","EPOCH":"2022-03-12T14:10:32.092608"},{"CENTER_NAME":"EARTH","ECCENTRICITY":"0.00018610","NORAD_CAT_ID":"46160","EPOCH":"2022-03-12T12:21:43.748352","APOAPSIS":"548.469","MEAN_MOTION_DDOT":"0.0000000000000","SITE":"AFETR","REV_AT_EPOCH":"8722","BSTAR":"0.00018846000000","MEAN_MOTION_DOT":"0.00002527","OBJECT_NAME":"STARLINK-1598","FILE":"3356719","SEMIMAJOR_AXIS":"6925.315","ELEMENT_SET_NO":"999","REF_FRAME":"TEME","PERIOD":"95.591","ARG_OF_PERICENTER":"45.3870","OBJECT_ID":"2020-057AV","MEAN_ANOMALY":"314.7271","MEAN_MOTION":"15.06410944","EPHEMERIS_TYPE":"0","MEAN_ELEMENT_THEORY":"SGP4","GP_ID":"198578283","DECAY_DATE":null,"TIME_SYSTEM":"UTC","TLE_LINE1":"1 46160U 20057AV  22071.51508968  .00002527  00000-0  18846-3 0  9991","OBJECT_TYPE":"PAYLOAD","COUNTRY_CODE":"US","INCLINATION":"53.0549","TLE_LINE2":"2 46160  53.0549   2.6132 0001861  45.3870 314.7271 15.06410944 87220","CLASSIFICATION_TYPE":"U","PERIAPSIS":"545.891","LAUNCH_DATE":"2020-08-18","RA_OF_ASC_NODE":"2.6132","RCS_SIZE":"LARGE"},{"DECAY_DATE":null,"TIME_SYSTEM":"UTC","TLE_LINE1":"1 46161U 20057AW  22071.89105955 -.00004415  00000-0 -27773-3 0  9991","COUNTRY_CODE":"US","INCLINATION":"53.0548","OBJECT_TYPE":"PAYLOAD","CLASSIFICATION_TYPE":"U","TLE_LINE2":"2 46161  53.0548   0.9243 0001453  56.2605 303.8522 15.06394520 87878","PERIAPSIS":"546.224","LAUNCH_DATE":"2020-08-18","RCS_SIZE":"LARGE","RA_OF_ASC_NODE":"0.9243","MEAN_MOTION":"15.06394520","MEAN_ANOMALY":"303.8522","EPHEMERIS_TYPE":"0","GP_ID":"198602757","MEAN_ELEMENT_THEORY":"SGP4","MEAN_MOTION_DOT":"-0.00004415","OBJECT_NAME":"STARLINK-1600","SEMIMAJOR_AXIS":"6925.365","FILE":"3356931","ELEMENT_SET_NO":"999","REF_FRAME":"TEME","PERIOD":"95.592","OBJECT_ID":"2020-057AW","ARG_OF_PERICENTER":"56.2605","ECCENTRICITY":"0.00014530","CENTER_NAME":"EARTH","EPOCH":"2022-03-12T21:23:07.545120","NORAD_CAT_ID":"46161","APOAPSIS":"548.237","MEAN_MOTION_DDOT":"0.0000000000000","REV_AT_EPOCH":"8787","SITE":"AFETR","BSTAR":"-0.00027773000000"},{"MEAN_MOTION_DOT":"-0.00003509","OBJECT_NAME":"STARLINK-1603","FILE":"3356931","SEMIMAJOR_AXIS":"6925.330","ELEMENT_SET_NO":"999","REF_FRAME":"TEME","PERIOD":"95.592","ARG_OF_PERICENTER":"46.5302","OBJECT_ID":"2020-057AX","CENTER_NAME":"EARTH","ECCENTRICITY":"0.00014700","EPOCH":"2022-03-12T21:28:25.781376","NORAD_CAT_ID":"46162","APOAPSIS":"548.213","MEAN_MOTION_DDOT":"0.0000000000000","REV_AT_EPOCH":"8788","SITE":"AFETR","BSTAR":"-0.00021678000000","DECAY_DATE":null,"TIME_SYSTEM":"UTC","TLE_LINE1":"1 46162U 20057AX  22071.89474284 -.00003509  00000-0 -21678-3 0  9997","COUNTRY_CODE":"US","INCLINATION":"53.0570","OBJECT_TYPE":"PAYLOAD","CLASSIFICATION_TYPE":"U","TLE_LINE2":"2 46162  53.0570   0.9115 0001470  46.5302 313.5809 15.06406035 87889","PERIAPSIS":"546.177","LAUNCH_DATE":"2020-08-18","RCS_SIZE":"LARGE","RA_OF_ASC_NODE":"0.9115","MEAN_MOTION":"15.06406035","MEAN_ANOMALY":"313.5809","EPHEMERIS_TYPE":"0","MEAN_ELEMENT_THEORY":"SGP4","GP_ID":"198603509"},{"MEAN_MOTION_DOT":"0.00018791","OBJECT_NAME":"STARLINK-1610","FILE":"3356931","SEMIMAJOR_AXIS":"6925.544","ELEMENT_SET_NO":"999","REF_FRAME":"TEME","PERIOD":"95.596","ARG_OF_PERICENTER":"63.7423","OBJECT_ID":"2020-057AY","ECCENTRICITY":"0.00010070","CENTER_NAME":"EARTH","NORAD_CAT_ID":"46163","EPOCH":"2022-03-12T21:25:47.280576","APOAPSIS":"548.107","MEAN_MOTION_DDOT":"0.0000000000000","SITE":"AFETR","REV_AT_EPOCH":"8690","BSTAR":"0.00127920000000","DECAY_DATE":null,"TIME_SYSTEM":"UTC","TLE_LINE1":"1 46163U 20057AY  22071.89290834  .00018791  00000-0  12792-2 0  9998","OBJECT_TYPE":"PAYLOAD","COUNTRY_CODE":"US","INCLINATION":"53.0549","TLE_LINE2":"2 46163  53.0549 340.9217 0001007  63.7423 296.3669 15.06336193 86908","CLASSIFICATION_TYPE":"U","PERIAPSIS":"546.712","LAUNCH_DATE":"2020-08-18","RA_OF_ASC_NODE":"340.9217","RCS_SIZE":"LARGE","MEAN_ANOMALY":"296.3669","MEAN_MOTION":"15.06336193","EPHEMERIS_TYPE":"0","GP_ID":"198603259","MEAN_ELEMENT_THEORY":"SGP4"}];
